{
  "type": "FeatureCollection",
  "features": [
    {
      "type": "Feature",
      "properties": {
        "norad_id": 32376,
        "name": "COSMO-SKYMED 2",
        "group": "resource",
        "lat": 17.064117181984756,
        "lon": 174.36503356456268,
        "alt_km": 622.6983743718001,
        "timestamp": "2025-12-21T14:40:47.567312+00:00",
        "meta_object_name": "COSMO-SKYMED 2",
        "meta_object_id": "2007-059A",
        "meta_epoch": "2025-12-21T06:30:03.931776",
        "meta_mean_motion": 14.82152412,
        "meta_eccentricity": 0.00013409,
        "meta_inclination": 97.8804,
        "meta_ra_of_asc_node": 176.4662,
        "meta_arg_of_pericenter": 83.3523,
        "meta_mean_anomaly": 276.7843,
        "meta_ephemeris_type": 0,
        "meta_classification_type": "U",
        "meta_norad_cat_id": 32376,
        "meta_element_set_no": 999,
        "meta_rev_at_epoch": 97564,
        "meta_bstar": 6.0201249e-05,
        "meta_mean_motion_dot": 4.27e-06,
        "meta_mean_motion_ddot": 0,
        "tle_line1": "1 32376U 07059A   25355.27087884  .00000427  00000+0  60201-4 0  9991",
        "tle_line2": "2 32376  97.8804 176.4662 0001340  83.3523 276.7843 14.82152412975641"
      },
      "geometry": {
        "type": "Point",
        "coordinates": [
          174.36503356456268,
          17.064117181984756
        ]
      }
    },
    {
      "type": "Feature",
      "properties": {
        "norad_id": 32382,
        "name": "RADARSAT-2",
        "group": "resource",
        "lat": 74.55861163676391,
        "lon": -146.799442907957,
        "alt_km": 783.8869924541304,
        "timestamp": "2025-12-21T14:40:47.567322+00:00",
        "meta_object_name": "RADARSAT-2",
        "meta_object_id": "2007-061A",
        "meta_epoch": "2025-12-21T07:29:00.605184",
        "meta_mean_motion": 14.29984092,
        "meta_eccentricity": 0.00011335,
        "meta_inclination": 98.579,
        "meta_ra_of_asc_node": 359.7774,
        "meta_arg_of_pericenter": 84.8187,
        "meta_mean_anomaly": 275.3124,
        "meta_ephemeris_type": 0,
        "meta_classification_type": "U",
        "meta_norad_cat_id": 32382,
        "meta_element_set_no": 999,
        "meta_rev_at_epoch": 94053,
        "meta_bstar": 4.5031217e-05,
        "meta_mean_motion_dot": 7.2e-07,
        "meta_mean_motion_ddot": 0,
        "tle_line1": "1 32382U 07061A   25355.31181256  .00000072  00000+0  45031-4 0  9994",
        "tle_line2": "2 32382  98.5790 359.7774 0001133  84.8187 275.3124 14.29984092940537"
      },
      "geometry": {
        "type": "Point",
        "coordinates": [
          -146.799442907957,
          74.55861163676391
        ]
      }
    },
    {
      "type": "Feature",
      "properties": {
        "norad_id": 32783,
        "name": "CARTOSAT-2A",
        "group": "resource",
        "lat": 54.01727090319826,
        "lon": 34.28745950229572,
        "alt_km": 626.0548881037421,
        "timestamp": "2025-12-21T14:40:47.567332+00:00",
        "meta_object_name": "CARTOSAT-2A",
        "meta_object_id": "2008-021A",
        "meta_epoch": "2025-12-21T06:18:52.837056",
        "meta_mean_motion": 14.78951691,
        "meta_eccentricity": 0.00111767,
        "meta_inclination": 97.7922,
        "meta_ra_of_asc_node": 44.8207,
        "meta_arg_of_pericenter": 336.8881,
        "meta_mean_anomaly": 23.1827,
        "meta_ephemeris_type": 0,
        "meta_classification_type": "U",
        "meta_norad_cat_id": 32783,
        "meta_element_set_no": 999,
        "meta_rev_at_epoch": 95250,
        "meta_bstar": 0.00010031181,
        "meta_mean_motion_dot": 6.9e-06,
        "meta_mean_motion_ddot": 0,
        "tle_line1": "1 32783U 08021A   25355.26311154  .00000690  00000+0  10031-3 0  9999",
        "tle_line2": "2 32783  97.7922  44.8207 0011176 336.8881  23.1827 14.78951691952504"
      },
      "geometry": {
        "type": "Point",
        "coordinates": [
          34.28745950229572,
          54.01727090319826
        ]
      }
    },
    {
      "type": "Feature",
      "properties": {
        "norad_id": 33320,
        "name": "HUANJING 1A (HJ-1A)",
        "group": "resource",
        "lat": 61.493552220788025,
        "lon": -30.795930959575752,
        "alt_km": 604.9539798385103,
        "timestamp": "2025-12-21T14:40:47.567343+00:00",
        "meta_object_name": "HUANJING 1A (HJ-1A)",
        "meta_object_id": "2008-041A",
        "meta_epoch": "2025-12-21T06:18:21.256128",
        "meta_mean_motion": 14.83419593,
        "meta_eccentricity": 0.00195233,
        "meta_inclination": 97.6537,
        "meta_ra_of_asc_node": 343.2054,
        "meta_arg_of_pericenter": 7.4904,
        "meta_mean_anomaly": 352.6599,
        "meta_ephemeris_type": 0,
        "meta_classification_type": "U",
        "meta_norad_cat_id": 33320,
        "meta_element_set_no": 999,
        "meta_rev_at_epoch": 93202,
        "meta_bstar": 0.00019320497,
        "meta_mean_motion_dot": 1.54e-05,
        "meta_mean_motion_ddot": 0,
        "tle_line1": "1 33320U 08041A   25355.26274602  .00001540  00000+0  19320-3 0  9990",
        "tle_line2": "2 33320  97.6537 343.2054 0019523   7.4904 352.6599 14.83419593932027"
      },
      "geometry": {
        "type": "Point",
        "coordinates": [
          -30.795930959575752,
          61.493552220788025
        ]
      }
    },
    {
      "type": "Feature",
      "properties": {
        "norad_id": 33321,
        "name": "HUANJING 1B (HJ-1B)",
        "group": "resource",
        "lat": -80.77261824485161,
        "lon": 111.50188903356002,
        "alt_km": 648.9048762287493,
        "timestamp": "2025-12-21T14:40:47.567354+00:00",
        "meta_object_name": "HUANJING 1B (HJ-1B)",
        "meta_object_id": "2008-041B",
        "meta_epoch": "2025-12-21T07:00:41.133600",
        "meta_mean_motion": 14.82844154,
        "meta_eccentricity": 0.0038017,
        "meta_inclination": 97.6396,
        "meta_ra_of_asc_node": 346.9082,
        "meta_arg_of_pericenter": 48.7476,
        "meta_mean_anomaly": 311.7003,
        "meta_ephemeris_type": 0,
        "meta_classification_type": "U",
        "meta_norad_cat_id": 33321,
        "meta_element_set_no": 999,
        "meta_rev_at_epoch": 93204,
        "meta_bstar": 0.00018912012,
        "meta_mean_motion_dot": 1.499e-05,
        "meta_mean_motion_ddot": 0,
        "tle_line1": "1 33321U 08041B   25355.29214275  .00001499  00000+0  18912-3 0  9993",
        "tle_line2": "2 33321  97.6396 346.9082 0038017  48.7476 311.7003 14.82844154932045"
      },
      "geometry": {
        "type": "Point",
        "coordinates": [
          111.50188903356002,
          -80.77261824485161
        ]
      }
    },
    {
      "type": "Feature",
      "properties": {
        "norad_id": 33331,
        "name": "GEOEYE 1",
        "group": "resource",
        "lat": 33.93004216383698,
        "lon": 61.2657986016399,
        "alt_km": 677.5493293880872,
        "timestamp": "2025-12-21T14:40:47.567364+00:00",
        "meta_object_name": "GEOEYE 1",
        "meta_object_id": "2008-042A",
        "meta_epoch": "2025-12-21T06:19:33.584160",
        "meta_mean_motion": 14.64710954,
        "meta_eccentricity": 0.00028431,
        "meta_inclination": 98.1242,
        "meta_ra_of_asc_node": 66.4367,
        "meta_arg_of_pericenter": 247.6151,
        "meta_mean_anomaly": 112.475,
        "meta_ephemeris_type": 0,
        "meta_classification_type": "U",
        "meta_norad_cat_id": 33331,
        "meta_element_set_no": 999,
        "meta_rev_at_epoch": 92410,
        "meta_bstar": 9.694083e-05,
        "meta_mean_motion_dot": 4.69e-06,
        "meta_mean_motion_ddot": 0,
        "tle_line1": "1 33331U 08042A   25355.26358315  .00000469  00000+0  96941-4 0  9991",
        "tle_line2": "2 33331  98.1242  66.4367 0002843 247.6151 112.4750 14.64710954924103"
      },
      "geometry": {
        "type": "Point",
        "coordinates": [
          61.2657986016399,
          33.93004216383698
        ]
      }
    },
    {
      "type": "Feature",
      "properties": {
        "norad_id": 33396,
        "name": "THEOS",
        "group": "resource",
        "lat": -81.13310641827998,
        "lon": 157.86758529339392,
        "alt_km": 833.2124012375552,
        "timestamp": "2025-12-21T14:40:47.567380+00:00",
        "meta_object_name": "THEOS",
        "meta_object_id": "2008-049A",
        "meta_epoch": "2025-12-21T06:39:31.377600",
        "meta_mean_motion": 14.20098906,
        "meta_eccentricity": 0.00012059,
        "meta_inclination": 98.5861,
        "meta_ra_of_asc_node": 53.1154,
        "meta_arg_of_pericenter": 96.3007,
        "meta_mean_anomaly": 263.8308,
        "meta_ephemeris_type": 0,
        "meta_classification_type": "U",
        "meta_norad_cat_id": 33396,
        "meta_element_set_no": 999,
        "meta_rev_at_epoch": 89271,
        "meta_bstar": 0.0001311088,
        "meta_mean_motion_dot": 2.37e-06,
        "meta_mean_motion_ddot": 0,
        "tle_line1": "1 33396U 08049A   25355.27744650  .00000237  00000+0  13111-3 0  9991",
        "tle_line2": "2 33396  98.5861  53.1154 0001205  96.3007 263.8308 14.20098906892711"
      },
      "geometry": {
        "type": "Point",
        "coordinates": [
          157.86758529339392,
          -81.13310641827998
        ]
      }
    }
  ]
}